*******************************************************************************
Ephemeris / WWW_USER Fri Apr 12 18:03:19 2019 Pasadena, USA      / Horizons    
*******************************************************************************
Target body name: Mars (499)                      {source: mar097}
Center body name: Earth (399)                     {source: mar097}
Center-site name: (user defined site below)
*******************************************************************************
Start time      : A.D. 1900-Jan-01 00:00:00.0000 UT      
Stop  time      : A.D. 2100-Jan-01 00:00:00.0000 UT      
Step-size       : 14400 minutes
*******************************************************************************
Target pole/equ : IAU_MARS                        {West-longitude positive}
Target radii    : 3396.2 x 3396.2 x 3376.2 km     {Equator, meridian, pole}    
Center geodetic : 279.000000,29.0000000,0.0100000 {E-lon(deg),Lat(deg),Alt(km)}
Center cylindric: 279.000000,5582.84695,3073.9060 {E-lon(deg),Dxy(km),Dz(km)}
Center pole/equ : High-precision EOP model        {East-longitude positive}
Center radii    : 6378.1 x 6378.1 x 6356.8 km     {Equator, meridian, pole}    
Target primary  : Sun
Vis. interferer : MOON (R_eq= 1737.400) km        {source: mar097}
Rel. light bend : Sun, EARTH                      {source: mar097}
Rel. lght bnd GM: 1.3271E+11, 3.9860E+05 km^3/s^2                              
Atmos refraction: YES (Earth refraction model)
RA format       : DEG
Time format     : CAL 
EOP file        : eop.190411.p190703                                           
EOP coverage    : DATA-BASED 1962-JAN-20 TO 2019-APR-11. PREDICTS-> 2019-JUL-02
Units conversion: 1 au= 149597870.700 km, c= 299792.458 km/s, 1 day= 86400.0 s 
Table cut-offs 1: Elevation (-90.0deg=NO ),Airmass (>38.000=NO), Daylight (NO )
Table cut-offs 2: Solar elongation (  0.0,180.0=NO ),Local Hour Angle( 0.0=NO )
Table cut-offs 3: RA/DEC angular rate (     0.0=NO )                           
********************************************************************************
 Date__(UT)__HR:MN     R.A._(ICRF/J2K)_DEC R.A._(r-appar)_DEC. Azi_(r-appr)_Elev
********************************************************************************
$$SOE
 1970-Mar-25 00:00 C    40.58481  16.17112  40.19360  16.05646 271.0199  32.9255
 1970-Apr-04 00:00 C    47.58718  18.26993  47.18915  18.16991 274.6105  31.2844
 1970-Apr-14 00:00 Cm   54.68258  20.09183  54.27797  20.00844 277.7613  29.5986
 1970-Apr-24 00:00 C    61.85901  21.61143  61.44856  21.54652 280.4795  27.8694
 1970-May-04 00:00 *    69.10276  22.81019  68.68819  22.76548 282.7787  26.0912
 1970-May-14 00:00 *m   76.39220  23.67397  75.97574  23.65077 284.6781  24.2463
 1970-May-24 00:00 *    83.69338  24.19455  83.27756  24.19382 286.2061  22.3026
 1970-Jun-03 00:00 *    90.97622  24.37105  90.56414  24.39360 287.3963  20.2298
 1970-Jun-13 00:00 *m   98.20723  24.20813  97.80258  24.25455 288.2882  17.9935
 1970-Jun-23 00:00 *   105.35063  23.71749 104.95768  23.78825 288.9287  15.5582
 1970-Jul-03 00:00 *m  112.38281  22.91544 112.00666  23.01157 289.3642  12.9004
 1970-Jul-13 00:00 *m  119.28217  21.82269 118.93085  21.94684 289.6430  10.0021
 1970-Jul-23 00:00 *   126.03240  20.46429 125.72223  20.62360 289.8128   6.8589
 1970-Aug-02 00:00 *m  132.63162  18.86546 132.40873  19.08473 289.9126   3.5051
 1970-Aug-12 00:00 *m  139.07963  17.05399 139.15994  17.45758 289.9787   0.1381
 1970-Aug-22 00:00 C   145.38222  15.05859 145.54959  15.53361 290.0414  -3.7020
 1970-Sep-01 00:00 C   151.55600  12.90542 151.71995  13.39820 290.1191  -7.8603
 1970-Sep-11 00:00 Nm  157.61564  10.62276 157.77627  11.13040 290.2288 -12.2098
 1970-Sep-21 00:00 N   163.57999   8.23784 163.73757   8.75742 290.3805 -16.7182
 1970-Oct-01 00:00 N   169.47432   5.77512 169.62923   6.30365 290.5751 -21.3479
 1970-Oct-11 00:00 Am  175.31897   3.26189 175.47176   3.79628 290.8159 -26.0620
 1970-Oct-21 00:00 A   181.13740   0.72350 181.28842   1.26082 291.1008 -30.8213
 1970-Oct-31 00:00 A   186.95612  -1.81608 187.10577  -1.27876 291.4226 -35.5844
 1970-Nov-10 00:00  m  192.79472  -4.32950 192.94373  -3.79517 291.7816 -40.3138
 1970-Nov-20 00:00     198.67562  -6.79180 198.82449  -6.26330 292.1750 -44.9713
 1970-Nov-30 00:00     204.62111  -9.17786 204.77012  -8.65782 292.6025 -49.5192
 1970-Dec-10 00:00  m  210.64432 -11.45954 210.79385 -10.95049 293.0817 -53.9273
 1970-Dec-20 00:00     216.76085 -13.61190 216.91109 -13.11594 293.6367 -58.1661
 1970-Dec-30 00:00  m  222.98185 -15.60909 223.13252 -15.12759 294.3191 -62.2107
 1971-Jan-09 00:00 Am  229.30631 -17.42453 229.45634 -16.95769 295.2360 -66.0468
 1971-Jan-19 00:00 A   235.73526 -19.03618 235.88250 -18.58246 296.5575 -69.6611
 1971-Jan-29 00:00 Am  242.25994 -20.42246 242.40025 -19.97706 298.6008 -73.0454
 1971-Feb-08 00:00 Nm  248.85765 -21.56531 248.98185 -21.11779 301.9722 -76.1940
 1971-Feb-18 00:00 N   255.50907 -22.45307 255.59720 -21.98398 307.8244 -79.0728
 1971-Feb-28 00:00 Nm  262.18151 -23.07802 262.18640 -22.55464 318.5556 -81.5785
 1971-Mar-10 00:00 Nm  268.83146 -23.44066 268.64023 -22.83299 338.4824 -83.3980
 1971-Mar-20 00:00 N   275.42360 -23.54878 274.88845 -22.92519   8.5188 -83.8610
 1971-Mar-30 00:00 Cm  281.90826 -23.41809 281.08608 -22.91341  35.4978 -82.6207
 1971-Apr-09 00:00 Cm  288.23180 -23.07485 287.27877 -22.69502  51.7402 -80.2255
 1971-Apr-19 00:00 C   294.35167 -22.55146 293.34809 -22.25511  61.0016 -77.1897
 1971-Apr-29 00:00 Cm  300.20550 -21.89226 299.18327 -21.64993  66.8674 -73.7061
 1971-May-09 00:00 *m  305.72888 -21.15124 304.70127 -20.94587  71.1286 -69.8235
 1971-May-19 00:00 *   310.85915 -20.38795 309.83215 -20.20938  74.6519 -65.5409
 1971-May-29 00:00 *m  315.49529 -19.67913 314.47088 -19.52125  77.9434 -60.8119
 1971-Jun-08 00:00 *m  319.52596 -19.10639 318.50408 -18.96506  81.2874 -55.5730
 1971-Jun-18 00:00 *   322.81891 -18.75482 321.79900 -18.62630  84.8659 -49.7411
 1971-Jun-28 00:00 *m  325.18423 -18.71836 324.16520 -18.59833  88.8426 -43.1898
 1971-Jul-08 00:00 *   326.44618 -19.05521 325.42694 -18.93754  93.3057 -35.8062
 1971-Jul-18 00:00 *   326.46285 -19.76977 325.44352 -19.64544  98.3152 -27.5222
 1971-Jul-28 00:00 *m  325.20237 -20.77086 324.18527 -20.62749 103.8993 -18.3861
 1971-Aug-07 00:00 *   322.95012 -21.82154 321.94139 -21.64475 109.9791  -8.7157
 1971-Aug-17 00:00 *   320.28332 -22.63774 319.48195 -22.52383 116.4382   0.7456
 1971-Aug-27 00:00 Cm  317.95472 -22.99050 317.47339 -23.04827 123.1023   9.4575
 1971-Sep-06 00:00 Cm  316.63489 -22.79163 316.19381 -22.86886 129.7574  17.4141
 1971-Sep-16 00:00 N   316.61885 -22.09532 316.19473 -22.18054 136.2725  24.2186
 1971-Sep-26 00:00 Nm  317.92558 -20.98255 317.51281 -21.07447 142.5598  29.9563
 1971-Oct-06 00:00 Am  320.39501 -19.52832 319.99211 -19.62742 148.6156  34.8366
 1971-Oct-16 00:00 A   323.77734 -17.79501 323.38376 -17.90176 154.5460  39.0814
 1971-Oct-26 00:00 Am  327.86535 -15.81559 327.48044 -15.93018 160.4699  42.8593
 1971-Nov-05 00:00     332.47445 -13.62291 332.09763 -13.74512 166.5528  46.2752
 1971-Nov-15 00:00     337.45048 -11.25197 337.08100 -11.38114 172.9870  49.3697
 1971-Nov-25 00:00  m  342.70038  -8.72859 342.33732  -8.86366 179.9171  52.1363
 1971-Dec-05 00:00     348.14810  -6.08815 347.79020  -6.22790 187.4688  54.5238
 1971-Dec-15 00:00     353.73997  -3.36740 353.38572  -3.51048 195.6944  56.4546
 1971-Dec-25 00:00  m  359.45604  -0.59721 359.10412  -0.74200 204.5067  57.8544
 1972-Jan-04 00:00 A     5.27711   2.18385   4.92606   2.03905 213.7023  58.6571
 1972-Jan-14 00:00 A    11.19573   4.93974  10.84379   4.79655 222.9587  58.8367
 1972-Jan-24 00:00 Am   17.22053   7.63838  16.86624   7.49862 231.9061  58.4256
 1972-Feb-03 00:00 A    23.35209  10.24245  22.99420  10.10801 240.2374  57.4907
 1972-Feb-13 00:00 N    29.59703  12.71886  29.23428  12.59154 247.7507  56.1322
 1972-Feb-23 00:00 Nm   35.96734  15.03665  35.59868  14.91830 254.3575  54.4632
 1972-Mar-04 00:00 N    42.46180  17.16240  42.08656  17.05491 260.0618  52.5765
 1972-Mar-14 00:00 N    49.08167  19.06760  48.69976  18.97281 264.9150  50.5526
 1972-Mar-24 00:00 Cm   55.82591  20.72575  55.43748  20.64532 268.9878  48.4516
 1972-Apr-03 00:00 C    62.67756  22.11164  62.28311  22.04711 272.3578  46.3016
 1972-Apr-13 00:00 C    69.62102  23.20596  69.22187  23.15876 275.0971  44.1182
 1972-Apr-23 00:00 Cm   76.63474  23.99311  76.23267  23.96429 277.2718  41.8991
 1972-May-03 00:00 *    83.68430  24.46278  83.28108  24.45305 278.9473  39.6216
 1972-May-13 00:00 *    90.74058  24.61090  90.33846  24.62079 280.1846  37.2611
 1972-May-23 00:00 *m   97.77148  24.43877  97.37298  24.46839 281.0441  34.7854
 1972-Jun-02 00:00 *   104.74114  23.95428 104.34855  24.00336 281.5896  32.1567
 1972-Jun-12 00:00 *m  111.62584  23.16948 111.24129  23.23757 281.8799  29.3465
 1972-Jun-22 00:00 *m  118.40363  22.10117 118.02917  22.18775 281.9731  26.3287
 1972-Jul-02 00:00 *   125.05652  20.77049 124.69437  20.87491 281.9265  23.0796
 1972-Jul-12 00:00 *m  131.58087  19.19902 131.23333  19.32086 281.7808  19.6008
 1972-Jul-22 00:00 *m  137.97493  17.41146 137.64511  17.55112 281.5774  15.8898
 1972-Aug-01 00:00 *   144.24255  15.43361 143.93676  15.59317 281.3473  11.9585
 1972-Aug-11 00:00 *m  150.39892  13.28928 150.13234  13.47589 281.1078   7.8374
 1972-Aug-21 00:00 Cm  156.45793  11.00480 156.28350  11.24730 280.8729   3.5937
 1972-Aug-31 00:00 C   162.43798   8.60559 162.64929   9.07009 280.6477  -0.4674
 1972-Sep-10 00:00 Nm  168.36474   6.11498 168.57375   6.58836 280.4269  -5.0804
 1972-Sep-20 00:00 Nm  174.25988   3.55931 174.46744   4.03796 280.2053  -9.7731
 1972-Sep-30 00:00 N   180.14870   0.96338 180.35560   1.44384 279.9714 -14.5043
 1972-Oct-10 00:00 Am  186.06078  -1.64862 186.26787  -1.16996 279.7074 -19.2287
 1972-Oct-20 00:00 Am  192.01987  -4.24890 192.22829  -3.77582 279.3997 -23.9037
